CCSDS_OMM_VERS = 2.0
CREATION_DATE  = 
ORIGINATOR     = 

OBJECT_NAME    = YOTSUBA-KULOVER
OBJECT_ID      = 1998-067XN
CENTER_NAME    = EARTH
REF_FRAME      = TEME
TIME_SYSTEM    = UTC
MEAN_ELEMENT_THEORY = SGP/SGP4

EPOCH          = 2026-02-20T12:47:37.491648
MEAN_MOTION    = 15.74153396
ECCENTRICITY   = .00054219
INCLINATION    = 51.6239
RA_OF_ASC_NODE = 145.8217
ARG_OF_PERICENTER = 337.3663
MEAN_ANOMALY   = 22.7096

EPHEMERIS_TYPE = 0
CLASSIFICATION_TYPE = U
NORAD_CAT_ID   = 65941
ELEMENT_SET_NO = 999
REV_AT_EPOCH   = 2079
BSTAR          = .90150745E-3
MEAN_MOTION_DOT = .133617E-2
MEAN_MOTION_DDOT = 0

CCSDS_OMM_VERS = 2.0
CREATION_DATE  = 
ORIGINATOR     = 

OBJECT_NAME    = BOTAN
OBJECT_ID      = 1998-067XP
CENTER_NAME    = EARTH
REF_FRAME      = TEME
TIME_SYSTEM    = UTC
MEAN_ELEMENT_THEORY = SGP/SGP4

EPOCH          = 2026-02-20T11:20:10.658112
MEAN_MOTION    = 15.94821373
ECCENTRICITY   = .00097506
INCLINATION    = 51.6144
RA_OF_ASC_NODE = 140.8294
ARG_OF_PERICENTER = 355.6567
MEAN_ANOMALY   = 4.4354

EPHEMERIS_TYPE = 0
CLASSIFICATION_TYPE = U
NORAD_CAT_ID   = 65942
ELEMENT_SET_NO = 999
REV_AT_EPOCH   = 2085
BSTAR          = .12722575E-2
MEAN_MOTION_DOT = .50163E-2
MEAN_MOTION_DDOT = .1127033E-3

CCSDS_OMM_VERS = 2.0
CREATION_DATE  = 
ORIGINATOR     = 

OBJECT_NAME    = E-KAGAKU-1
OBJECT_ID      = 1998-067XQ
CENTER_NAME    = EARTH
REF_FRAME      = TEME
TIME_SYSTEM    = UTC
MEAN_ELEMENT_THEORY = SGP/SGP4

EPOCH          = 2026-02-20T12:50:14.379360
MEAN_MOTION    = 15.73982715
ECCENTRICITY   = .00054774
INCLINATION    = 51.6268
RA_OF_ASC_NODE = 145.8479
ARG_OF_PERICENTER = 347.8246
MEAN_ANOMALY   = 12.2619

EPHEMERIS_TYPE = 0
CLASSIFICATION_TYPE = U
NORAD_CAT_ID   = 65943
ELEMENT_SET_NO = 999
REV_AT_EPOCH   = 2079
BSTAR          = .9037914E-3
MEAN_MOTION_DOT = .132963E-2
MEAN_MOTION_DDOT = 0

CCSDS_OMM_VERS = 2.0
CREATION_DATE  = 
ORIGINATOR     = 

OBJECT_NAME    = HRC MONOBLOCK CAMERA
OBJECT_ID      = 1998-067XR
CENTER_NAME    = EARTH
REF_FRAME      = TEME
TIME_SYSTEM    = UTC
MEAN_ELEMENT_THEORY = SGP/SGP4

EPOCH          = 2026-02-20T06:56:43.908576
MEAN_MOTION    = 15.60302557
ECCENTRICITY   = .0002498
INCLINATION    = 51.6293
RA_OF_ASC_NODE = 153.2198
ARG_OF_PERICENTER = 26.6751
MEAN_ANOMALY   = 333.4371

EPHEMERIS_TYPE = 0
CLASSIFICATION_TYPE = U
NORAD_CAT_ID   = 66052
ELEMENT_SET_NO = 999
REV_AT_EPOCH   = 1967
BSTAR          = .4507E-3
MEAN_MOTION_DOT = .37241E-3
MEAN_MOTION_DDOT = 0

CCSDS_OMM_VERS = 2.0
CREATION_DATE  = 
ORIGINATOR     = 

OBJECT_NAME    = HTV-X1
OBJECT_ID      = 2025-241A
CENTER_NAME    = EARTH
REF_FRAME      = TEME
TIME_SYSTEM    = UTC
MEAN_ELEMENT_THEORY = SGP/SGP4

EPOCH          = 2026-02-20T19:07:45.802560
MEAN_MOTION    = 15.48167199
ECCENTRICITY   = .00085713
INCLINATION    = 51.6323
RA_OF_ASC_NODE = 155.8543
ARG_OF_PERICENTER = 116.6604
MEAN_ANOMALY   = 243.5263

EPHEMERIS_TYPE = 0
CLASSIFICATION_TYPE = U
NORAD_CAT_ID   = 66174
ELEMENT_SET_NO = 999
REV_AT_EPOCH   = 51
BSTAR          = .18779765E-3
MEAN_MOTION_DOT = .9624E-4
MEAN_MOTION_DDOT = 0

CCSDS_OMM_VERS = 2.0
CREATION_DATE  = 
ORIGINATOR     = 

OBJECT_NAME    = SZ-21 MODULE
OBJECT_ID      = 2025-246C
CENTER_NAME    = EARTH
REF_FRAME      = TEME
TIME_SYSTEM    = UTC
MEAN_ELEMENT_THEORY = SGP/SGP4

EPOCH          = 2026-02-20T01:07:01.388640
MEAN_MOTION    = 15.67142085
ECCENTRICITY   = .00017542
INCLINATION    = 41.4757
RA_OF_ASC_NODE = 311.8512
ARG_OF_PERICENTER = 295.1642
MEAN_ANOMALY   = 64.9017

EPHEMERIS_TYPE = 0
CLASSIFICATION_TYPE = U
NORAD_CAT_ID   = 66515
ELEMENT_SET_NO = 999
REV_AT_EPOCH   = 1530
BSTAR          = .28694459E-3
MEAN_MOTION_DOT = .31392E-3
MEAN_MOTION_DDOT = 0

CCSDS_OMM_VERS = 2.0
CREATION_DATE  = 
ORIGINATOR     = 

OBJECT_NAME    = SHENZHOU-22
OBJECT_ID      = 2025-272A
CENTER_NAME    = EARTH
REF_FRAME      = TEME
TIME_SYSTEM    = UTC
MEAN_ELEMENT_THEORY = SGP/SGP4

EPOCH          = 2026-02-20T22:41:31.159392
MEAN_MOTION    = 15.59946673
ECCENTRICITY   = .00048141
INCLINATION    = 41.4672
RA_OF_ASC_NODE = 309.9874
ARG_OF_PERICENTER = 158.5479
MEAN_ANOMALY   = 201.5562

EPHEMERIS_TYPE = 0
CLASSIFICATION_TYPE = U
NORAD_CAT_ID   = 66645
ELEMENT_SET_NO = 999
REV_AT_EPOCH   = 26764
BSTAR          = .27735445E-3
MEAN_MOTION_DOT = .2276E-3
MEAN_MOTION_DDOT = 0

CCSDS_OMM_VERS = 2.0
CREATION_DATE  = 
ORIGINATOR     = 

OBJECT_NAME    = SOYUZ-MS 28
OBJECT_ID      = 2025-275A
CENTER_NAME    = EARTH
REF_FRAME      = TEME
TIME_SYSTEM    = UTC
MEAN_ELEMENT_THEORY = SGP/SGP4

EPOCH          = 2026-02-20T19:07:45.801696
MEAN_MOTION    = 15.48167199
ECCENTRICITY   = .0008571
INCLINATION    = 51.6323
RA_OF_ASC_NODE = 155.8543
ARG_OF_PERICENTER = 116.6604
MEAN_ANOMALY   = 243.5263

EPHEMERIS_TYPE = 0
CLASSIFICATION_TYPE = U
NORAD_CAT_ID   = 66664
ELEMENT_SET_NO = 999
REV_AT_EPOCH   = 55371
BSTAR          = .1878E-3
MEAN_MOTION_DOT = .9624E-4
MEAN_MOTION_DDOT = 0

CCSDS_OMM_VERS = 2.0
CREATION_DATE  = 
ORIGINATOR     = 

OBJECT_NAME    = DUPLEX
OBJECT_ID      = 1998-067XS
CENTER_NAME    = EARTH
REF_FRAME      = TEME
TIME_SYSTEM    = UTC
MEAN_ELEMENT_THEORY = SGP/SGP4

EPOCH          = 2026-02-19T20:31:31.993824
MEAN_MOTION    = 15.54966738
ECCENTRICITY   = .00015348
INCLINATION    = 51.6297
RA_OF_ASC_NODE = 158.5697
ARG_OF_PERICENTER = 73.8689
MEAN_ANOMALY   = 286.2471

EPHEMERIS_TYPE = 0
CLASSIFICATION_TYPE = U
NORAD_CAT_ID   = 66906
ELEMENT_SET_NO = 999
REV_AT_EPOCH   = 1235
BSTAR          = .46566264E-3
MEAN_MOTION_DOT = .31428E-3
MEAN_MOTION_DDOT = 0

CCSDS_OMM_VERS = 2.0
CREATION_DATE  = 
ORIGINATOR     = 

OBJECT_NAME    = ISS OBJECT XT
OBJECT_ID      = 1998-067XT
CENTER_NAME    = EARTH
REF_FRAME      = TEME
TIME_SYSTEM    = UTC
MEAN_ELEMENT_THEORY = SGP/SGP4

EPOCH          = 2026-02-20T13:12:45.541440
MEAN_MOTION    = 15.64313056
ECCENTRICITY   = .0003244
INCLINATION    = 51.6271
RA_OF_ASC_NODE = 152.7080
ARG_OF_PERICENTER = 345.9087
MEAN_ANOMALY   = 14.1817

EPHEMERIS_TYPE = 0
CLASSIFICATION_TYPE = U
NORAD_CAT_ID   = 66907
ELEMENT_SET_NO = 999
REV_AT_EPOCH   = 1249
BSTAR          = .11191931E-2
MEAN_MOTION_DOT = .110065E-2
MEAN_MOTION_DDOT = 0

CCSDS_OMM_VERS = 2.0
CREATION_DATE  = 
ORIGINATOR     = 

OBJECT_NAME    = ISS OBJECT XU
OBJECT_ID      = 1998-067XU
CENTER_NAME    = EARTH
REF_FRAME      = TEME
TIME_SYSTEM    = UTC
MEAN_ELEMENT_THEORY = SGP/SGP4

EPOCH          = 2026-02-20T07:03:31.510944
MEAN_MOTION    = 15.64310971
ECCENTRICITY   = .0003151
INCLINATION    = 51.6268
RA_OF_ASC_NODE = 153.9936
ARG_OF_PERICENTER = 349.4129
MEAN_ANOMALY   = 10.6799

EPHEMERIS_TYPE = 0
CLASSIFICATION_TYPE = U
NORAD_CAT_ID   = 66908
ELEMENT_SET_NO = 999
REV_AT_EPOCH   = 1245
BSTAR          = .9512E-3
MEAN_MOTION_DOT = .93259E-3
MEAN_MOTION_DDOT = 0

CCSDS_OMM_VERS = 2.0
CREATION_DATE  = 
ORIGINATOR     = 

OBJECT_NAME    = SILVERSAT
OBJECT_ID      = 1998-067XV
CENTER_NAME    = EARTH
REF_FRAME      = TEME
TIME_SYSTEM    = UTC
MEAN_ELEMENT_THEORY = SGP/SGP4

EPOCH          = 2026-02-20T19:56:54.431520
MEAN_MOTION    = 15.66283326
ECCENTRICITY   = .00041098
INCLINATION    = 51.6265
RA_OF_ASC_NODE = 150.8302
ARG_OF_PERICENTER = 345.8583
MEAN_ANOMALY   = 14.2297

EPHEMERIS_TYPE = 0
CLASSIFICATION_TYPE = U
NORAD_CAT_ID   = 66909
ELEMENT_SET_NO = 999
REV_AT_EPOCH   = 1254
BSTAR          = .11787588E-2
MEAN_MOTION_DOT = .125725E-2
MEAN_MOTION_DDOT = 0

