YOTSUBA-KULOVER         
1 65941U 98067XN  26051.53307282  .00133617  00000+0  90151-3 0  9998
2 65941  51.6239 145.8217 0005421 337.3663  22.7096 15.74153396 20792
BOTAN                   
1 65942U 98067XP  26051.47234558  .00501630  11270-3  12723-2 0  9994
2 65942  51.6144 140.8294 0009750 355.6567   4.4354 15.94821373 20853
E-KAGAKU-1              
1 65943U 98067XQ  26051.53488865  .00132963  00000+0  90379-3 0  9992
2 65943  51.6268 145.8479 0005477 347.8246  12.2619 15.73982715 20799
HRC MONOBLOCK CAMERA    
1 66052U 98067XR  26051.28939709  .00037241  00000+0  45070-3 0  9995
2 66052  51.6293 153.2198 0002498  26.6751 333.4371 15.60302557 19677
HTV-X1                  
1 66174U 25241A   26051.79705790  .00009624  00000+0  18780-3 0  9993
2 66174  51.6323 155.8543 0008571 116.6604 243.5263 15.48167199   514
SZ-21 MODULE            
1 66515U 25246C   26051.04654385  .00031392  00000+0  28694-3 0  9990
2 66515  41.4757 311.8512 0001754 295.1642  64.9017 15.67142085 15305
SHENZHOU-22             
1 66645U 25272A   26051.94549953  .00022760  00000+0  27735-3 0  9990
2 66645  41.4672 309.9874 0004814 158.5479 201.5562 15.59946673267640
SOYUZ-MS 28             
1 66664U 25275A   26051.79705790  .00009624  00000+0  18780-3 0  9994
2 66664  51.6323 155.8543 0008571 116.6604 243.5263 15.48167199  1283
DUPLEX                  
1 66906U 98067XS  26050.85523141  .00031428  00000+0  46566-3 0  9996
2 66906  51.6297 158.5697 0001534  73.8689 286.2471 15.54966738 12359
ISS OBJECT XT           
1 66907U 98067XT  26051.55052710  .00110065  00000+0  11192-2 0  9995
2 66907  51.6271 152.7080 0003244 345.9087  14.1817 15.64313056 12496
ISS OBJECT XU           
1 66908U 98067XU  26051.29411471  .00093259  00000+0  95120-3 0  9999
2 66908  51.6268 153.9936 0003151 349.4129  10.6799 15.64310971 12458
SILVERSAT               
1 66909U 98067XV  26051.83118555  .00125725  00000+0  11788-2 0  9998
2 66909  51.6265 150.8302 0004109 345.8583  14.2297 15.66283326 12545
